SCD 1                   
1 22490U 93009B   26167.84088094  .00000336  00000+0  41011-4 0  9993
2 22490  24.9678 209.7158 0042091 134.0546  37.9167 14.46118733761067
TECHSAT 1B (GO-32)      
1 25397U 98043D   26167.85366090  .00000033  00000+0  34602-4 0  9993
2 25397  99.0067 160.6038 0001052 163.3790 196.7423 14.24428316451287
SCD 2                   
1 25504U 98060A   26167.05369787  .00000362  00000+0  50288-4 0  9993
2 25504  24.9952  79.1473 0016965 111.0820 271.9229 14.45525509460169
DLR-TUBSAT              
1 25757U 99029B   26167.88008988  .00000053  00000+0  24871-4 0  9999
2 25757  98.6695 163.3740 0014069 356.1813   3.9272 14.52426786433202
TERRA                   
1 25994U 99068A   26167.89082471  .00000327  00000+0  75513-4 0  9998
2 25994  97.9457 217.4488 0001555 190.4186 284.6770 14.61102929409564
MAROC-TUBSAT            
1 27004U 01056D   26167.77307272 -.00000040  00000+0  70419-5 0  9992
2 27004  99.8081 344.6248 0020313 142.2912 230.0050 13.70262445226139
AQUA                    
1 27424U 02022A   26167.85374244  .00000620  00000+0  13312-3 0  9994
2 27424  98.4277 137.1299 0001116  53.2308  33.5679 14.62157697283228
SHIYAN-1 (SY-1)         
1 28220U 04012A   26167.79216595  .00011189  00000+0  34519-3 0  9991
2 28220  97.8692 245.8346 0005623  33.8584 326.3015 15.33752574211035
AURA                    
1 28376U 04026A   26167.84915978  .00000616  00000+0  13445-3 0  9993
2 28376  98.3417 124.2996 0001216  75.1644 284.9691 14.61328654166169
IRS-P5 (CARTOSAT-1)     
1 28649U 05017A   26167.80986453  .00001279  00000+0  13450-3 0  9991
2 28649  97.5308 190.8915 0002586  80.3769 279.7742 14.91048608143760
SINAH 1                 
1 28893U 05043D   26167.84914140  .00000243  00000+0  55672-4 0  9992
2 28893  98.2860 302.1691 0013130 277.9740  81.9972 14.64157461100478
RESURS-DK 1             
1 29228U 06021A   26167.77094823  .00001913  00000+0  11352-3 0  9992
2 29228  69.9342 340.6300 0006936 292.2536  67.7895 15.13217483102513
ARIRANG-2 (KOMPSAT-2)   
1 29268U 06031A   26167.82671023  .00000280  00000+0  60939-4 0  9998
2 29268  97.8300 352.2906 0015943  75.6533  49.0920 14.64660137 61429
LAPAN-TUBSAT            
1 29709U 07001A   26167.85032111 -.00000024  00000+0  39182-5 0  9992
2 29709  98.1337 167.0665 0011832 180.1627 179.9585 14.85949493 51108
HAIYANG-1B              
1 31113U 07010A   26167.86512601  .00000068  00000+0  41808-4 0  9996
2 31113  98.3495 149.7228 0012995 197.3174 162.7568 14.31026830   597
COSMO-SKYMED 1          
1 31598U 07023A   26167.80082411  .00002229  00000+0  19848-3 0  9991
2 31598  97.8842 359.6530 0001303 100.0369 260.0999 14.97097508 29739
TERRASAR-X              
1 31698U 07026A   26166.54501914  .00000298  00000+0  17394-4 0  9998
2 31698  97.4452 174.2739 0001604  89.1769 270.9649 15.19148908 52970
WORLDVIEW-1 (WV-1)      
1 32060U 07041A   26167.63559426  .00004876  00000+0  20268-3 0  9990
2 32060  97.3882 287.3867 0002310  22.7879 337.3460 15.24261817 42797
YAOGAN-3                
1 32289U 07055A   26167.85887068  .00001289  00000+0  13675-3 0  9997
2 32289  97.8152 197.7397 0001968  82.3174 277.8268 14.90781104  5820
COSMO-SKYMED 2          
1 32376U 07059A   26167.82349404  .00000308  00000+0  45283-4 0  9994
2 32376  97.8886 351.4267 0001351  87.0315 273.1053 14.82154707  1956
RADARSAT-2              
1 32382U 07061A   26167.89787102 -.00000092  00000+0 -18948-4 0  9992
2 32382  98.5770 174.8341 0001301  85.1900 274.9431 14.29981457965912
CARTOSAT-2A             
1 32783U 08021A   26167.84359258  .00000871  00000+0  12382-3 0  9994
2 32783  97.7633 216.5639 0013186 109.8134 250.4500 14.79239565978750
HUANJING 1A (HJ-1A)     
1 33320U 08041A   26167.82918701  .00000265  00000+0  37897-4 0  9992
2 33320  97.6675 153.6811 0019935 135.8836 224.3973 14.83982971958351
HUANJING 1B (HJ-1B)     
1 33321U 08041B   26167.86555414  .00001074  00000+0  13600-3 0  9999
2 33321  97.6511 156.8888 0036078 181.9597 178.1482 14.83317417958362
GEOEYE 1                
1 33331U 08042A   26167.81034468  .00000386  00000+0  81366-4 0  9997
2 33331  98.1236 241.7464 0005418  70.5649 289.6139 14.64725452950092
THEOS                   
1 33396U 08049A   26167.82794946 -.00000153  00000+0 -52071-4 0  9995
2 33396  98.5573 225.1231 0001220  77.9325 282.1988 14.20132664917911
COSMO-SKYMED 3          
1 33412U 08054A   26167.87755590  .00002979  00000+0  20324-3 0  9998
2 33412  97.8281  26.4430 0014203 267.9997  91.9603 15.06952773956898
YAOGAN-4                
1 33446U 08061A   26167.76232080  .00000812  00000+0  10582-3 0  9994
2 33446  97.9308 101.2757 0015730  73.7274 286.5669 14.83199462945600
GOSAT (IBUKI)           
1 33492U 09002A   26167.86562830  .00000941  00000+0  17441-3 0  9995
2 33492  98.0890 278.9506 0001527  82.1774 277.9604 14.67539630931415
DEIMOS-1                
1 35681U 09041A   26167.84723677  .00000244  00000+0  43088-4 0  9999
2 35681  97.7397 325.0891 0001606 130.6233 229.5117 14.75236664906833
DUBAISAT-1              
1 35682U 09041B   26167.61424514  .00000578  00000+0  93187-4 0  9998
2 35682  98.0051 300.8782 0011666  75.3877 284.8625 14.75121744905010
