OBJECT_NAME,OBJECT_ID,EPOCH,MEAN_MOTION,ECCENTRICITY,INCLINATION,RA_OF_ASC_NODE,ARG_OF_PERICENTER,MEAN_ANOMALY,EPHEMERIS_TYPE,CLASSIFICATION_TYPE,NORAD_CAT_ID,ELEMENT_SET_NO,REV_AT_EPOCH,BSTAR,MEAN_MOTION_DOT,MEAN_MOTION_DDOT
SCD 1,1993-009B,2026-06-16T20:10:52.113216,14.46118733,.0042091,24.9678,209.7158,134.0546,37.9167,0,U,22490,999,76106,.41011E-4,.336E-5,0
TECHSAT 1B (GO-32),1998-043D,2026-06-16T20:29:16.301760,14.24428316,.0001052,99.0067,160.6038,163.3790,196.7423,0,U,25397,999,45128,.34602E-4,.33E-6,0
SCD 2,1998-060A,2026-06-16T01:17:19.495968,14.45525509,.00169659,24.9952,79.1473,111.0820,271.9229,0,U,25504,999,46016,.50287527E-4,.362E-5,0
DLR-TUBSAT,1999-029B,2026-06-16T21:07:19.765632,14.52426786,.0014069,98.6695,163.3740,356.1813,3.9272,0,U,25757,999,43320,.24871E-4,.53E-6,0
TERRA,1999-068A,2026-06-16T21:22:47.254944,14.61102929,.0001555,97.9457,217.4488,190.4186,284.6770,0,U,25994,999,40956,.75513E-4,.327E-5,0
MAROC-TUBSAT,2001-056D,2026-06-16T18:33:13.483008,13.70262445,.0020313,99.8081,344.6248,142.2912,230.0050,0,U,27004,999,22613,.70419E-5,-.4E-6,0
AQUA,2002-022A,2026-06-16T20:29:23.346816,14.62157697,.0001116,98.4277,137.1299,53.2308,33.5679,0,U,27424,999,28322,.13312E-3,.62E-5,0
SHIYAN-1 (SY-1),2004-012A,2026-06-16T19:00:43.138080,15.33752574,.0005623,97.8692,245.8346,33.8584,326.3015,0,U,28220,999,21103,.34519E-3,.11189E-3,0
AURA,2004-026A,2026-06-16T20:22:47.404992,14.61328654,.0001216,98.3417,124.2996,75.1644,284.9691,0,U,28376,999,16616,.13445E-3,.616E-5,0
IRS-P5 (CARTOSAT-1),2005-017A,2026-06-16T19:26:12.295392,14.91048608,.0002586,97.5308,190.8915,80.3769,279.7742,0,U,28649,999,14376,.1345E-3,.1279E-4,0
SINAH 1,2005-043D,2026-06-16T20:22:45.816960,14.64157461,.001313,98.2860,302.1691,277.9740,81.9972,0,U,28893,999,10047,.55672E-4,.243E-5,0
RESURS-DK 1,2006-021A,2026-06-16T18:30:09.927072,15.13217483,.0006936,69.9342,340.6300,292.2536,67.7895,0,U,29228,999,10251,.11352E-3,.1913E-4,0
ARIRANG-2 (KOMPSAT-2),2006-031A,2026-06-16T19:50:27.763872,14.64660137,.0015943,97.8300,352.2906,75.6533,49.0920,0,U,29268,999,6142,.60939E-4,.28E-5,0
LAPAN-TUBSAT,2007-001A,2026-06-16T20:24:27.743904,14.85949493,.0011832,98.1337,167.0665,180.1627,179.9585,0,U,29709,999,5110,.39182E-5,-.24E-6,0
HAIYANG-1B,2007-010A,2026-06-16T20:45:46.887264,14.31026830,.0012995,98.3495,149.7228,197.3174,162.7568,0,U,31113,999,59,.41808E-4,.68E-6,0
COSMO-SKYMED 1,2007-023A,2026-06-16T19:13:11.203104,14.97097508,.0001303,97.8842,359.6530,100.0369,260.0999,0,U,31598,999,2973,.19848E-3,.2229E-4,0
TERRASAR-X,2007-026A,2026-06-15T13:04:49.653696,15.19148908,.00016045,97.4452,174.2739,89.1769,270.9649,0,U,31698,999,5297,.17393623E-4,.298E-5,0
WORLDVIEW-1 (WV-1),2007-041A,2026-06-16T15:15:15.344064,15.24261817,.000231,97.3882,287.3867,22.7879,337.3460,0,U,32060,999,4279,.20268E-3,.4876E-4,0
YAOGAN-3,2007-055A,2026-06-16T20:36:46.426752,14.90781104,.0001968,97.8152,197.7397,82.3174,277.8268,0,U,32289,999,582,.13675E-3,.1289E-4,0
COSMO-SKYMED 2,2007-059A,2026-06-16T19:45:49.885056,14.82154707,.0001351,97.8886,351.4267,87.0315,273.1053,0,U,32376,999,195,.45283E-4,.308E-5,0
RADARSAT-2,2007-061A,2026-06-16T21:32:56.056128,14.29981457,.0001301,98.5770,174.8341,85.1900,274.9431,0,U,32382,999,96591,-.18948E-4,-.92E-6,0
CARTOSAT-2A,2008-021A,2026-06-16T20:14:46.398912,14.79239565,.0013186,97.7633,216.5639,109.8134,250.4500,0,U,32783,999,97875,.12382E-3,.871E-5,0
HUANJING 1A (HJ-1A),2008-041A,2026-06-16T19:54:01.757664,14.83982971,.0019935,97.6675,153.6811,135.8836,224.3973,0,U,33320,999,95835,.37897E-4,.265E-5,0
HUANJING 1B (HJ-1B),2008-041B,2026-06-16T20:46:23.877696,14.83317417,.0036078,97.6511,156.8888,181.9597,178.1482,0,U,33321,999,95836,.136E-3,.1074E-4,0
GEOEYE 1,2008-042A,2026-06-16T19:26:53.780352,14.64725452,.0005418,98.1236,241.7464,70.5649,289.6139,0,U,33331,999,95009,.81366E-4,.386E-5,0
THEOS,2008-049A,2026-06-16T19:52:14.833344,14.20132664,.000122,98.5573,225.1231,77.9325,282.1988,0,U,33396,999,91791,-.52071E-4,-.153E-5,0
COSMO-SKYMED 3,2008-054A,2026-06-16T21:03:40.829760,15.06952773,.0014203,97.8281,26.4430,267.9997,91.9603,0,U,33412,999,95689,.20324E-3,.2979E-4,0
YAOGAN-4,2008-061A,2026-06-16T18:17:44.517120,14.83199462,.001573,97.9308,101.2757,73.7274,286.5669,0,U,33446,999,94560,.10582E-3,.812E-5,0
GOSAT (IBUKI),2009-002A,2026-06-16T20:46:30.285120,14.67539630,.0001527,98.0890,278.9506,82.1774,277.9604,0,U,33492,999,93141,.17441E-3,.941E-5,0
DEIMOS-1,2009-041A,2026-06-16T20:20:01.256928,14.75236664,.0001606,97.7397,325.0891,130.6233,229.5117,0,U,35681,999,90683,.43088E-4,.244E-5,0
DUBAISAT-1,2009-041B,2026-06-16T14:44:30.780096,14.75121744,.0011666,98.0051,300.8782,75.3877,284.8625,0,U,35682,999,90501,.93187E-4,.578E-5,0
